[{"OBJECT_NAME":"ONEWEB-0710","OBJECT_ID":"2023-004AK","EPOCH":"2026-01-20T06:43:22.041408","MEAN_MOTION":13.17651342,"ECCENTRICITY":0.00019659,"INCLINATION":87.9083,"RA_OF_ASC_NODE":35.2644,"ARG_OF_PERICENTER":93.8892,"MEAN_ANOMALY":266.2464,"EPHEMERIS_TYPE":0,"CLASSIFICATION_TYPE":"U","NORAD_CAT_ID":55173,"ELEMENT_SET_NO":999,"REV_AT_EPOCH":14810,"BSTAR":5.85568e-7,"MEAN_MOTION_DOT":1.3e-7,"MEAN_MOTION_DDOT":0},{"OBJECT_NAME":"ONEWEB-0711","OBJECT_ID":"2023-004AL","EPOCH":"2026-01-20T07:29:49.655328","MEAN_MOTION":13.11413855,"ECCENTRICITY":0.00025592,"INCLINATION":87.8825,"RA_OF_ASC_NODE":50.4972,"ARG_OF_PERICENTER":99.4272,"MEAN_ANOMALY":260.7146,"EPHEMERIS_TYPE":0,"CLASSIFICATION_TYPE":"U","NORAD_CAT_ID":55174,"ELEMENT_SET_NO":999,"REV_AT_EPOCH":14645,"BSTAR":0.00062702747,"MEAN_MOTION_DOT":2.35e-6,"MEAN_MOTION_DDOT":0},{"OBJECT_NAME":"ONEWEB-0713","OBJECT_ID":"2023-004AM","EPOCH":"2026-01-20T07:56:41.335872","MEAN_MOTION":13.11405972,"ECCENTRICITY":0.00023162,"INCLINATION":87.8821,"RA_OF_ASC_NODE":50.4941,"ARG_OF_PERICENTER":98.6255,"MEAN_ANOMALY":261.5135,"EPHEMERIS_TYPE":0,"CLASSIFICATION_TYPE":"U","NORAD_CAT_ID":55175,"ELEMENT_SET_NO":999,"REV_AT_EPOCH":14644,"BSTAR":-0.0046212144,"MEAN_MOTION_DOT":-1.625e-5,"MEAN_MOTION_DDOT":0},{"OBJECT_NAME":"ONEWEB-0715","OBJECT_ID":"2023-004AN","EPOCH":"2026-01-20T07:49:20.796096","MEAN_MOTION":13.11416582,"ECCENTRICITY":0.000175,"INCLINATION":87.8821,"RA_OF_ASC_NODE":50.4962,"ARG_OF_PERICENTER":119.0826,"MEAN_ANOMALY":241.0478,"EPHEMERIS_TYPE":0,"CLASSIFICATION_TYPE":"U","NORAD_CAT_ID":55176,"ELEMENT_SET_NO":999,"REV_AT_EPOCH":14648,"BSTAR":-0.0010055536,"MEAN_MOTION_DOT":-3.44e-6,"MEAN_MOTION_DDOT":0},{"OBJECT_NAME":"ONEWEB-0716","OBJECT_ID":"2023-004AP","EPOCH":"2026-01-20T06:33:39.345120","MEAN_MOTION":13.17649493,"ECCENTRICITY":0.0001685,"INCLINATION":87.9083,"RA_OF_ASC_NODE":35.2658,"ARG_OF_PERICENTER":85.0513,"MEAN_ANOMALY":275.0811,"EPHEMERIS_TYPE":0,"CLASSIFICATION_TYPE":"U","NORAD_CAT_ID":55177,"ELEMENT_SET_NO":999,"REV_AT_EPOCH":14810,"BSTAR":6.724356e-5,"MEAN_MOTION_DOT":3.9e-7,"MEAN_MOTION_DDOT":0},{"OBJECT_NAME":"ONEWEB-0717","OBJECT_ID":"2023-004AQ","EPOCH":"2026-01-20T07:58:42.471264","MEAN_MOTION":13.17649067,"ECCENTRICITY":0.00024522,"INCLINATION":87.9095,"RA_OF_ASC_NODE":35.2286,"ARG_OF_PERICENTER":100.1909,"MEAN_ANOMALY":259.9499,"EPHEMERIS_TYPE":0,"CLASSIFICATION_TYPE":"U","NORAD_CAT_ID":55178,"ELEMENT_SET_NO":999,"REV_AT_EPOCH":14816,"BSTAR":-3.3975515e-5,"MEAN_MOTION_DOT":0,"MEAN_MOTION_DDOT":0},{"OBJECT_NAME":"ONEWEB-0719","OBJECT_ID":"2023-004AR","EPOCH":"2026-01-20T06:23:56.957280","MEAN_MOTION":13.17648725,"ECCENTRICITY":0.00018678,"INCLINATION":87.9094,"RA_OF_ASC_NODE":35.2239,"ARG_OF_PERICENTER":85.5801,"MEAN_ANOMALY":274.5544,"EPHEMERIS_TYPE":0,"CLASSIFICATION_TYPE":"U","NORAD_CAT_ID":55179,"ELEMENT_SET_NO":999,"REV_AT_EPOCH":14810,"BSTAR":0.00021624985,"MEAN_MOTION_DOT":9.7e-7,"MEAN_MOTION_DDOT":0},{"OBJECT_NAME":"ONEWEB-0530","OBJECT_ID":"2023-029A","EPOCH":"2026-01-20T05:07:00.810912","MEAN_MOTION":13.20772009,"ECCENTRICITY":0.00022151,"INCLINATION":87.9227,"RA_OF_ASC_NODE":304.0044,"ARG_OF_PERICENTER":78.6713,"MEAN_ANOMALY":281.467,"EPHEMERIS_TYPE":0,"CLASSIFICATION_TYPE":"U","NORAD_CAT_ID":55796,"ELEMENT_SET_NO":999,"REV_AT_EPOCH":14161,"BSTAR":0.00023896864,"MEAN_MOTION_DOT":1.1e-6,"MEAN_MOTION_DDOT":0},{"OBJECT_NAME":"ONEWEB-0534","OBJECT_ID":"2023-029B","EPOCH":"2026-01-20T06:37:55.838208","MEAN_MOTION":13.20772711,"ECCENTRICITY":0.00016616,"INCLINATION":87.9224,"RA_OF_ASC_NODE":303.9913,"ARG_OF_PERICENTER":72.2943,"MEAN_ANOMALY":287.8372,"EPHEMERIS_TYPE":0,"CLASSIFICATION_TYPE":"U","NORAD_CAT_ID":55797,"ELEMENT_SET_NO":999,"REV_AT_EPOCH":14162,"BSTAR":0.00022746867,"MEAN_MOTION_DOT":1.05e-6,"MEAN_MOTION_DDOT":0},{"OBJECT_NAME":"ONEWEB-0556","OBJECT_ID":"2023-029C","EPOCH":"2026-01-20T06:47:00.460608","MEAN_MOTION":13.20771203,"ECCENTRICITY":0.00022308,"INCLINATION":87.9226,"RA_OF_ASC_NODE":303.9914,"ARG_OF_PERICENTER":53.2873,"MEAN_ANOMALY":306.8465,"EPHEMERIS_TYPE":0,"CLASSIFICATION_TYPE":"U","NORAD_CAT_ID":55798,"ELEMENT_SET_NO":999,"REV_AT_EPOCH":14162,"BSTAR":0.00015340106,"MEAN_MOTION_DOT":7.5e-7,"MEAN_MOTION_DDOT":0},{"OBJECT_NAME":"ONEWEB-0562","OBJECT_ID":"2023-029D","EPOCH":"2026-01-20T06:28:49.964736","MEAN_MOTION":13.20772461,"ECCENTRICITY":0.00025564,"INCLINATION":87.9224,"RA_OF_ASC_NODE":303.9749,"ARG_OF_PERICENTER":71.464,"MEAN_ANOMALY":288.6771,"EPHEMERIS_TYPE":0,"CLASSIFICATION_TYPE":"U","NORAD_CAT_ID":55799,"ELEMENT_SET_NO":999,"REV_AT_EPOCH":14162,"BSTAR":0.00029105881,"MEAN_MOTION_DOT":1.31e-6,"MEAN_MOTION_DDOT":0},{"OBJECT_NAME":"ONEWEB-0563","OBJECT_ID":"2023-029E","EPOCH":"2026-01-20T06:19:44.685696","MEAN_MOTION":13.20772999,"ECCENTRICITY":0.00015954,"INCLINATION":87.9227,"RA_OF_ASC_NODE":304.0055,"ARG_OF_PERICENTER":67.3336,"MEAN_ANOMALY":292.7966,"EPHEMERIS_TYPE":0,"CLASSIFICATION_TYPE":"U","NORAD_CAT_ID":55800,"ELEMENT_SET_NO":999,"REV_AT_EPOCH":14161,"BSTAR":0.00027536756,"MEAN_MOTION_DOT":1.25e-6,"MEAN_MOTION_DDOT":0},{"OBJECT_NAME":"ONEWEB-0564","OBJECT_ID":"2023-029F","EPOCH":"2026-01-20T06:10:39.445536","MEAN_MOTION":13.20773439,"ECCENTRICITY":0.00020777,"INCLINATION":87.9222,"RA_OF_ASC_NODE":303.9802,"ARG_OF_PERICENTER":76.1219,"MEAN_ANOMALY":284.0145,"EPHEMERIS_TYPE":0,"CLASSIFICATION_TYPE":"U","NORAD_CAT_ID":55801,"ELEMENT_SET_NO":999,"REV_AT_EPOCH":14162,"BSTAR":0.00021423134,"MEAN_MOTION_DOT":1.0e-6,"MEAN_MOTION_DDOT":0},{"OBJECT_NAME":"ONEWEB-0638","OBJECT_ID":"2023-029G","EPOCH":"2026-01-20T06:25:43.629312","MEAN_MOTION":13.14503494,"ECCENTRICITY":0.00020679,"INCLINATION":87.902,"RA_OF_ASC_NODE":319.2453,"ARG_OF_PERICENTER":68.129,"MEAN_ANOMALY":292.0059,"EPHEMERIS_TYPE":0,"CLASSIFICATION_TYPE":"U","NORAD_CAT_ID":55802,"ELEMENT_SET_NO":999,"REV_AT_EPOCH":13996,"BSTAR":0.0005666635,"MEAN_MOTION_DOT":2.23e-6,"MEAN_MOTION_DDOT":0},{"OBJECT_NAME":"ONEWEB-0639","OBJECT_ID":"2023-029H","EPOCH":"2026-01-20T06:21:34.173504","MEAN_MOTION":13.19726776,"ECCENTRICITY":8.428e-5,"INCLINATION":87.9234,"RA_OF_ASC_NODE":334.4163,"ARG_OF_PERICENTER":53.913,"MEAN_ANOMALY":306.2081,"EPHEMERIS_TYPE":0,"CLASSIFICATION_TYPE":"U","NORAD_CAT_ID":55803,"ELEMENT_SET_NO":999,"REV_AT_EPOCH":13939,"BSTAR":0.00011115063,"MEAN_MOTION_DOT":5.7e-7,"MEAN_MOTION_DDOT":0},{"OBJECT_NAME":"ONEWEB-0640","OBJECT_ID":"2023-029J","EPOCH":"2026-01-20T06:39:26.070048","MEAN_MOTION":13.14502878,"ECCENTRICITY":0.00019327,"INCLINATION":87.9024,"RA_OF_ASC_NODE":319.2327,"ARG_OF_PERICENTER":53.9222,"MEAN_ANOMALY":306.2086,"EPHEMERIS_TYPE":0,"CLASSIFICATION_TYPE":"U","NORAD_CAT_ID":55804,"ELEMENT_SET_NO":999,"REV_AT_EPOCH":13998,"BSTAR":0.00066394301,"MEAN_MOTION_DOT":2.59e-6,"MEAN_MOTION_DDOT":0},{"OBJECT_NAME":"ONEWEB-0641","OBJECT_ID":"2023-029K","EPOCH":"2026-01-20T06:14:45.822912","MEAN_MOTION":13.19725821,"ECCENTRICITY":0.00015904,"INCLINATION":87.9242,"RA_OF_ASC_NODE":334.401,"ARG_OF_PERICENTER":78.4374,"MEAN_ANOMALY":281.6937,"EPHEMERIS_TYPE":0,"CLASSIFICATION_TYPE":"U","NORAD_CAT_ID":55805,"ELEMENT_SET_NO":999,"REV_AT_EPOCH":13940,"BSTAR":3.795702e-5,"MEAN_MOTION_DOT":2.8e-7,"MEAN_MOTION_DDOT":0}]
