ONEWEB-0710             
1 55173U 23004AK  26020.28011622  .00000013  00000+0  58557-6 0  9991
2 55173  87.9083  35.2644 0001965  93.8892 266.2464 13.17651342148109
ONEWEB-0711             
1 55174U 23004AL  26020.31238027  .00000235  00000+0  62703-3 0  9997
2 55174  87.8825  50.4972 0002559  99.4272 260.7146 13.11413855146451
ONEWEB-0713             
1 55175U 23004AM  26020.33103398 -.00001625  00000+0 -46212-2 0  9994
2 55175  87.8821  50.4941 0002316  98.6255 261.5135 13.11405972146444
ONEWEB-0715             
1 55176U 23004AN  26020.32593514 -.00000344  00000+0 -10056-2 0  9991
2 55176  87.8821  50.4962 0001750 119.0826 241.0478 13.11416582146487
ONEWEB-0716             
1 55177U 23004AP  26020.27337205  .00000039  00000+0  67244-4 0  9991
2 55177  87.9083  35.2658 0001685  85.0513 275.0811 13.17649493148108
ONEWEB-0717             
1 55178U 23004AQ  26020.33243601  .00000000  00000+0 -33976-4 0  9999
2 55178  87.9095  35.2286 0002452 100.1909 259.9499 13.17649067148166
ONEWEB-0719             
1 55179U 23004AR  26020.26663145  .00000097  00000+0  21625-3 0  9993
2 55179  87.9094  35.2239 0001867  85.5801 274.5544 13.17648725148108
ONEWEB-0530             
1 55796U 23029A   26020.21320383  .00000110  00000+0  23897-3 0  9993
2 55796  87.9227 304.0044 0002215  78.6713 281.4670 13.20772009141618
ONEWEB-0534             
1 55797U 23029B   26020.27634072  .00000105  00000+0  22747-3 0  9990
2 55797  87.9224 303.9913 0001661  72.2943 287.8372 13.20772711141628
ONEWEB-0556             
1 55798U 23029C   26020.28264422  .00000075  00000+0  15340-3 0  9997
2 55798  87.9226 303.9914 0002230  53.2873 306.8465 13.20771203141626
ONEWEB-0562             
1 55799U 23029D   26020.27002274  .00000131  00000+0  29106-3 0  9990
2 55799  87.9224 303.9749 0002556  71.4640 288.6771 13.20772461141620
ONEWEB-0563             
1 55800U 23029E   26020.26371164  .00000125  00000+0  27537-3 0  9998
2 55800  87.9227 304.0055 0001595  67.3336 292.7966 13.20772999141613
ONEWEB-0564             
1 55801U 23029F   26020.25740099  .00000100  00000+0  21423-3 0  9996
2 55801  87.9222 303.9802 0002077  76.1219 284.0145 13.20773439141625
ONEWEB-0638             
1 55802U 23029G   26020.26786608  .00000223  00000+0  56666-3 0  9997
2 55802  87.9020 319.2453 0002067  68.1290 292.0059 13.14503494139965
ONEWEB-0639             
1 55803U 23029H   26020.26497886  .00000057  00000+0  11115-3 0  9990
2 55803  87.9234 334.4163 0000842  53.9130 306.2081 13.19726776139399
ONEWEB-0640             
1 55804U 23029J   26020.27738507  .00000259  00000+0  66394-3 0  9993
2 55804  87.9024 319.2327 0001932  53.9222 306.2086 13.14502878139983
ONEWEB-0641             
1 55805U 23029K   26020.26025258  .00000028  00000+0  37957-4 0  9993
2 55805  87.9242 334.4010 0001590  78.4374 281.6937 13.19725821139402
